NORAD_CAT_ID,OBJECT_NAME,OBJECT_TYPE,EPOCH,MEAN_MOTION,ECCENTRICITY,INCLINATION,RA_OF_ASC_NODE,ARG_OF_PERICENTER,MEAN_ANOMALY,BSTAR,MEAN_MOTION_DOT,MEAN_MOTION_DDOT,TLE_LINE0,TLE_LINE1,TLE_LINE2,SEMIMAJOR_AXIS,PERIOD,APOGEE,PERIGEE,DECAYED
53933.0,STARLINK-4782,PAYLOAD,2024-02-03 12:39:19,15.08836312,0.0001524,53.2173,138.9282,89.5639,270.5528,-2.1965e-05,-6.38e-06,0.0,0 STARLINK-4782,1 53933U 22119AZ  24034.52730428 -.00000638  00000-0 -21965-4 0  9998,2 53933  53.2173 138.9282 0001524  89.5639 270.5528 15.08836312 76033,6917.892,95.438,540.811,538.702,0.0
53933.0,STARLINK-4782,PAYLOAD,2024-02-03 15:50:05,15.0884046,0.000154,53.2174,138.3326,87.8799,272.237,1.2658e-05,-8.7e-07,0.0,0 STARLINK-4782,1 53933U 22119AZ  24034.65978064 -.00000087  00000-0  12658-4 0  9998,2 53933  53.2174 138.3326 0001540  87.8799 272.2370 15.08840460 76474,6917.879,95.438,540.809,538.679,0.0
53933.0,STARLINK-4782,PAYLOAD,2024-02-04 14:05:28,15.08842845,0.0001592,53.2172,134.1714,86.0702,274.0472,3.4596e-05,2.63e-06,0.0,0 STARLINK-4782,1 53933U 22119AZ  24035.58713963  .00000263  00000-0  34596-4 0  9996,2 53933  53.2172 134.1714 0001592  86.0702 274.0472 15.08842845 76617,6917.872,95.437,540.838,538.635,0.0
53933.0,STARLINK-4782,PAYLOAD,2024-02-05 12:20:53,15.08838168,0.0001658,53.2174,130.0057,98.6767,261.4413,9.9317e-06,-1.3e-06,0.0,0 STARLINK-4782,1 53933U 22119AZ  24036.51450433 -.00000130  00000-0  99317-5 0  9997,2 53933  53.2174 130.0057 0001658  98.6767 261.4413 15.08838168 76334,6917.886,95.438,540.898,538.604,0.0
53933.0,STARLINK-4782,PAYLOAD,2024-02-05 13:56:15,15.08843762,0.0001485,53.217,129.7077,94.262,265.8542,5.1199e-05,5.27e-06,0.0,0 STARLINK-4782,1 53933U 22119AZ  24036.58073923  .00000527  00000-0  51199-4 0  9993,2 53933  53.2170 129.7077 0001485  94.2620 265.8542 15.08843762 76769,6917.869,95.437,540.761,538.707,0.0
53933.0,STARLINK-4782,PAYLOAD,2024-02-06 10:36:17,15.08840077,0.0001657,53.2167,125.845,93.6428,266.4753,1.3456e-05,-7.4e-07,0.0,0 STARLINK-4782,1 53933U 22119AZ  24037.44186410 -.00000074  00000-0  13456-4 0  9997,2 53933  53.2167 125.8450 0001657  93.6428 266.4753 15.08840077 76472,6917.88,95.438,540.891,538.599,0.0
53933.0,STARLINK-4782,PAYLOAD,2024-02-06 12:11:40,15.08840644,0.0001725,53.2166,125.5478,88.2558,271.8632,2.2815e-05,7.5e-07,0.0,0 STARLINK-4782,1 53933U 22119AZ  24037.50810389  .00000075  00000-0  22815-4 0  9992,2 53933  53.2166 125.5478 0001725  88.2558 271.8632 15.08840644 76902,6917.878,95.438,540.937,538.55,0.0
53933.0,STARLINK-4782,PAYLOAD,2024-02-07 12:02:26,15.08846499,0.0001566,53.2168,121.0869,90.7154,269.4018,3.7957e-06,-2.28e-06,0.0,0 STARLINK-4782,1 53933U 22119AZ  24038.50170041 -.00000228  00000-0  37957-5 0  9992,2 53933  53.2168 121.0869 0001566  90.7154 269.4018 15.08846499 76637,6917.861,95.437,540.809,538.642,0.0
53933.0,STARLINK-4782,PAYLOAD,2024-02-08 11:53:14,15.08835528,0.0001632,53.2172,116.6247,89.1806,270.9373,-3.9562e-05,-9.18e-06,0.0,0 STARLINK-4782,1 53933U 22119AZ  24039.49531153 -.00000918  00000-0 -39562-4 0  9996,2 53933  53.2172 116.6247 0001632  89.1806 270.9373 15.08835528 76780,6917.894,95.438,540.888,538.63,0.0
53933.0,STARLINK-4782,PAYLOAD,2024-02-09 11:44:01,15.08846992,0.000158,53.2171,112.1657,92.1678,267.9495,4.5849e-05,4.42e-06,0.0,0 STARLINK-4782,1 53933U 22119AZ  24040.48890350  .00000442  00000-0  45849-4 0  9999,2 53933  53.2171 112.1657 0001580  92.1678 267.9495 15.08846992 76933,6917.859,95.437,540.817,538.631,0.0
53933.0,STARLINK-4782,PAYLOAD,2024-02-10 03:37:53,15.08833888,0.0001657,53.2173,109.1914,105.4291,254.6884,2.9439e-05,1.8e-06,0.0,0 STARLINK-4782,1 53933U 22119AZ  24041.15131364  .00000180  00000-0  29439-4 0  9993,2 53933  53.2173 109.1914 0001657 105.4291 254.6884 15.08833888 77038,6917.899,95.438,540.91,538.618,0.0
53933.0,STARLINK-4782,PAYLOAD,2024-02-10 09:59:26,15.08834318,0.0001638,53.2175,108.0024,109.3851,250.7318,3.2843e-05,2.35e-06,0.0,0 STARLINK-4782,1 53933U 22119AZ  24041.41627421  .00000235  00000-0  32843-4 0  9990,2 53933  53.2175 108.0024 0001638 109.3851 250.7318 15.08834318 77492,6917.898,95.438,540.896,538.63,0.0
53933.0,STARLINK-4782,PAYLOAD,2024-02-11 11:25:35,15.08846606,0.0001401,53.2169,103.2443,86.6466,273.4686,7.064e-05,8.37e-06,0.0,0 STARLINK-4782,1 53933U 22119AZ  24042.47610786  .00000837  00000-0  70640-4 0  9998,2 53933  53.2169 103.2443 0001401  86.6466 273.4686 15.08846606 77239,6917.86,95.437,540.694,538.756,0.0
53933.0,STARLINK-4782,PAYLOAD,2024-02-11 13:00:58,15.08848618,0.0001424,53.2166,102.9458,80.6631,279.4523,8.992e-05,1.144e-05,0.0,0 STARLINK-4782,1 53933U 22119AZ  24042.54234626  .00001144  00000-0  89920-4 0  9994,2 53933  53.2166 102.9458 0001424  80.6631 279.4523 15.08848618 77669,6917.854,95.437,540.704,538.734,0.0
53933.0,STARLINK-4782,PAYLOAD,2024-02-12 11:16:22,15.08848374,0.0001521,53.2167,98.785,78.3005,281.8158,0.00013771,1.905e-05,0.0,0 STARLINK-4782,1 53933U 22119AZ  24043.46970229  .00001905  00000-0  13771-3 0  9997,2 53933  53.2167  98.7850 0001521  78.3005 281.8158 15.08848374 77801,6917.855,95.437,540.772,538.668,0.0
53933.0,STARLINK-4782,PAYLOAD,2024-02-13 03:10:14,15.08840118,0.0001892,53.2171,95.8122,65.4173,294.7016,-5.8709e-05,-1.222e-05,0.0,0 STARLINK-4782,1 53933U 22119AZ  24044.13211556 -.00001222  00000-0 -58709-4 0  9998,2 53933  53.2171  95.8122 0001892  65.4173 294.7016 15.08840118 77488,6917.88,95.438,541.054,538.436,0.0
53933.0,STARLINK-4782,PAYLOAD,2024-02-13 09:31:47,15.088381,0.0001645,53.2167,94.6203,74.1808,285.9365,-7.5531e-05,-1.49e-05,0.0,0 STARLINK-4782,1 53933U 22119AZ  24044.39707705 -.00001490  00000-0 -75531-4 0  9991,2 53933  53.2167  94.6203 0001645  74.1808 285.9365 15.08838100 77946,6917.886,95.438,540.889,538.613,0.0
53933.0,STARLINK-4782,PAYLOAD,2024-02-13 20:39:29,15.08839284,0.0001539,53.2175,92.5381,85.3769,274.7399,-1.1932e-05,-4.78e-06,0.0,0 STARLINK-4782,1 53933U 22119AZ  24044.86075404 -.00000478  00000-0 -11932-4 0  9997,2 53933  53.2175  92.5381 0001539  85.3769 274.7399 15.08839284 78017,6917.883,95.438,540.812,538.683,0.0
53933.0,STARLINK-4782,PAYLOAD,2024-02-14 09:22:33,15.08851942,0.0001636,53.2167,90.1576,93.8147,266.3033,1.4662e-05,-5.5e-07,0.0,0 STARLINK-4782,1 53933U 22119AZ  24045.39066348 -.00000055  00000-0  14662-4 0  9996,2 53933  53.2167  90.1576 0001636  93.8147 266.3033 15.08851942 77678,6917.844,95.437,540.841,538.577,0.0
53933.0,STARLINK-4782,PAYLOAD,2024-02-14 12:33:19,15.08857447,0.0001727,53.2165,89.5623,96.5911,263.5278,6.0073e-05,6.69e-06,0.0,0 STARLINK-4782,1 53933U 22119AZ  24045.52313800  .00000669  00000-0  60073-4 0  9996,2 53933  53.2165  89.5623 0001727  96.5911 263.5278 15.08857447 78117,6917.827,95.436,540.887,538.497,0.0
53933.0,STARLINK-4782,PAYLOAD,2024-02-14 20:30:15,15.0884516,0.0002046,53.2172,88.0774,75.4327,284.6892,-9.6514e-05,-1.824e-05,0.0,0 STARLINK-4782,1 53933U 22119AZ  24045.85434960 -.00001824  00000-0 -96514-4 0  9998,2 53933  53.2172  88.0774 0002046  75.4327 284.6892 15.08845160 78168,6917.865,95.437,541.145,538.314,0.0
53933.0,STARLINK-4782,PAYLOAD,2024-02-15 02:51:48,15.08833422,0.0002077,53.2166,86.887,83.7516,276.3713,5.7445e-05,6.26e-06,0.0,0 STARLINK-4782,1 53933U 22119AZ  24046.11931610  .00000626  00000-0  57445-4 0  9999,2 53933  53.2166  86.8870 0002077  83.7516 276.3713 15.08833422 77785,6917.9,95.438,541.202,538.329,0.0
53933.0,STARLINK-4782,PAYLOAD,2024-02-15 09:13:21,15.08831994,0.0001773,53.2167,85.6975,92.7156,267.4039,5.5799e-05,6e-06,0.0,0 STARLINK-4782,1 53933U 22119AZ  24046.38427798  .00000600  00000-0  55799-4 0  9997,2 53933  53.2167  85.6975 0001773  92.7156 267.4039 15.08831994 78247,6917.905,95.438,540.996,538.543,0.0
53933.0,STARLINK-4782,PAYLOAD,2024-02-16 09:04:08,15.08844045,0.000158,53.2172,81.2389,87.9702,272.1471,8.4084e-05,1.051e-05,0.0,0 STARLINK-4782,1 53933U 22119AZ  24047.37787257  .00001051  00000-0  84084-4 0  9996,2 53933  53.2172  81.2389 0001580  87.9702 272.1471 15.08844045 77976,6917.868,95.437,540.826,538.64,0.0
53933.0,STARLINK-4782,PAYLOAD,2024-02-17 02:33:23,15.08820661,0.0001569,53.2176,77.9722,84.334,275.7831,0.00017803,2.545e-05,0.0,0 STARLINK-4782,1 53933U 22119AZ  24048.10652639  .00002545  00000-0  17803-3 0  9996,2 53933  53.2176  77.9722 0001569  84.3340 275.7831 15.08820661 78089,6917.94,95.439,540.89,538.719,0.0
53933.0,STARLINK-4782,PAYLOAD,2024-02-17 08:54:54,15.088563,0.0001787,53.2171,76.7783,99.2102,260.9092,0.00029922,4.479e-05,0.0,0 STARLINK-4782,1 53933U 22119AZ  24048.37146198  .00004479  00000-0  29922-3 0  9996,2 53933  53.2171  76.7783 0001787  99.2102 260.9092 15.08856300 78120,6917.831,95.437,540.932,538.459,0.0
53933.0,STARLINK-4782,PAYLOAD,2024-02-17 12:05:40,15.08860727,0.0001801,53.2167,76.1827,98.2388,261.8808,0.00030518,4.575e-05,0.0,0 STARLINK-4782,1 53933U 22119AZ  24048.50393786  .00004575  00000-0  30518-3 0  9998,2 53933  53.2167  76.1827 0001801  98.2388 261.8808 15.08860727 78561,6917.817,95.436,540.928,538.436,0.0
53933.0,STARLINK-4782,PAYLOAD,2024-02-17 18:27:14,15.08839878,0.0002271,53.2169,74.9928,92.2182,267.907,0.00013214,1.815e-05,0.0,0 STARLINK-4782,1 53933U 22119AZ  24048.76891688  .00001815  00000-0  13214-3 0  9998,2 53933  53.2169  74.9928 0002271  92.2182 267.9070 15.08839878 78188,6917.881,95.438,541.317,538.175,0.0
53933.0,STARLINK-4782,PAYLOAD,2024-02-18 02:24:11,15.08829961,0.0001892,53.2175,73.5096,96.0222,264.0986,-3.7041e-05,-8.77e-06,0.0,0 STARLINK-4782,1 53933U 22119AZ  24049.10012842 -.00000877  00000-0 -37041-4 0  9998,2 53933  53.2175  73.5096 0001892  96.0222 264.0986 15.08829961 78233,6917.911,95.438,541.085,538.467,0.0
53933.0,STARLINK-4782,PAYLOAD,2024-02-18 11:56:29,15.08838302,0.0001929,53.2181,71.723,96.4821,263.6391,9.2446e-06,-1.41e-06,0.0,0 STARLINK-4782,1 53933U 22119AZ  24049.49756234 -.00000141  00000-0  92446-5 0  9994,2 53933  53.2181  71.7230 0001929  96.4821 263.6391 15.08838302 78290,6917.886,95.438,541.085,538.416,0.0
